*******************************************************************************
JPL/HORIZONS                1008 La Paz (A923 UD)          2023-Sep-04 11:09:40
Rec #:    1008 (+COV) Soln.date: 2023-Aug-21_10:31:10   # obs: 8959 (1923-2023)
 
IAU76/J2000 helio. ecliptic osc. elements (au, days, deg., period=Julian yrs):
 
  EPOCH=  2457397.5 ! 2016-Jan-10.00 (TDB)         Residual RMS= .24822
   EC= .07863090954563554  QR= 2.849641356355195   TP= 2457610.456981421
   OM= 20.55537560641942   W=  15.05058782240554   IN= 8.935885473637045
   A= 3.092833681830939    MA= 321.4112148213928   ADIST= 3.336026007306683
   PER= 5.4393             N= .181204603           ANGMOM= .030158725
   DAN= 2.85679            DDN= 3.32629            L= 35.4314367
   B= 2.311629             MOID= 1.85539997        TP= 2016-Aug-09.9569814210
 
Asteroid physical parameters (km, seconds, rotational period in hours):
   GM= n.a.                RAD= 20.5305            ROTPER= 8.998
   H= 10.66                G= .150                 B-V= n.a.
                           ALBEDO= .027            STYP= n.a.

ASTEROID comments: 
1: soln ref.= JPL#57, OCC=0
2: source=ORB
*******************************************************************************


*******************************************************************************
Ephemeris / API_USER Mon Sep  4 11:09:40 2023 Pasadena, USA      / Horizons
*******************************************************************************
Target body name: 1008 La Paz (A923 UD)           {source: JPL#57}
Center body name: Solar System Barycenter (0)     {source: DE441}
Center-site name: BODY CENTER
*******************************************************************************
Start time      : A.D. 2023-Aug-12 00:00:00.0000 TDB
Stop  time      : A.D. 2023-Aug-13 00:00:00.0000 TDB
Step-size       : 2880 minutes
*******************************************************************************
Center geodetic : 0.0, 0.0, 0.0                   {E-lon(deg),Lat(deg),Alt(km)}
Center cylindric: 0.0, 0.0, 0.0                   {E-lon(deg),Dxy(km),Dz(km)}
Center radii    : (undefined)
Small perturbers: Yes                             {source: SB441-N16}
Output units    : KM-S
Calendar mode   : Mixed Julian/Gregorian
Output type     : GEOMETRIC cartesian states
Output format   : 2 (position and velocity)
Reference frame : Ecliptic of J2000.0
*******************************************************************************
Initial IAU76/J2000 heliocentric ecliptic osculating elements (au, days, deg.):
  EPOCH=  2457397.5 ! 2016-Jan-10.00 (TDB)         Residual RMS= .24822        
   EC= .07863090954563554  QR= 2.849641356355195   TP= 2457610.456981421       
   OM= 20.55537560641942   W=  15.05058782240554   IN= 8.935885473637045       
  Equivalent ICRF heliocentric cartesian coordinates (au, au/d):
   X= 2.868489654801255E+00  Y=-3.165613364923641E-01  Z=-3.807637805820072E-01
  VX= 1.134953816622162E-03 VY= 8.795641415719896E-03 VZ= 5.383680600583397E-03
Asteroid physical parameters (km, seconds, rotational period in hours):        
   GM= n.a.                RAD= 20.5305            ROTPER= 8.998               
   H= 10.66                G= .150                 B-V= n.a.                   
                           ALBEDO= .027            STYP= n.a.                  
*******************************************************************************
JDTDB
   X     Y     Z
   VX    VY    VZ
*******************************************************************************
$$SOE
2460168.500000000 = A.D. 2023-Aug-12 00:00:00.0000 TDB 
 X =-3.952638165880489E+08 Y = 2.538766072178946E+08 Z = 5.890779563748050E+07
 VX=-1.004811585863530E+01 VY=-1.312483029504788E+01 VZ=-1.387892735833336E+00
$$EOE
*******************************************************************************
 
TIME

  Barycentric Dynamical Time ("TDB" or T_eph) output was requested. This
continuous coordinate time is equivalent to the relativistic proper time
of a clock at rest in a reference frame co-moving with the solar system
barycenter but outside the system's gravity well. It is the independent
variable in the solar system relativistic equations of motion.

  TDB runs at a uniform rate of one SI second per second and is independent
of irregularities in Earth's rotation.
 
CALENDAR SYSTEM

  Mixed calendar mode was active such that calendar dates after AD 1582-Oct-15
(if any) are in the modern Gregorian system. Dates prior to 1582-Oct-5 (if any)
are in the Julian calendar system, which is automatically extended for dates
prior to its adoption on 45-Jan-1 BC.  The Julian calendar is useful for
matching historical dates. The Gregorian calendar more accurately corresponds
to the Earth's orbital motion and seasons. A "Gregorian-only" calendar mode is
available if such physical events are the primary interest.

REFERENCE FRAME AND COORDINATES

  Ecliptic at the standard reference epoch

    Reference epoch: J2000.0
    X-Y plane: adopted Earth orbital plane at the reference epoch
               Note: IAU76 obliquity of 84381.448 arcseconds wrt ICRF X-Y plane
    X-axis   : ICRF
    Z-axis   : perpendicular to the X-Y plane in the directional (+ or -) sense
               of Earth's north pole at the reference epoch.

  Symbol meaning:

    JDTDB    Julian Day Number, Barycentric Dynamical Time
      X      X-component of position vector (km)
      Y      Y-component of position vector (km)
      Z      Z-component of position vector (km)
      VX     X-component of velocity vector (km/sec)                           
      VY     Y-component of velocity vector (km/sec)                           
      VZ     Z-component of velocity vector (km/sec)                           

ABERRATIONS AND CORRECTIONS

 Geometric state vectors have NO corrections or aberrations applied.

Computations by ...

    Solar System Dynamics Group, Horizons On-Line Ephemeris System
    4800 Oak Grove Drive, Jet Propulsion Laboratory
    Pasadena, CA  91109   USA

    General site: https://ssd.jpl.nasa.gov/
    Mailing list: https://ssd.jpl.nasa.gov/email_list.html
    System news : https://ssd.jpl.nasa.gov/horizons/news.html
    User Guide  : https://ssd.jpl.nasa.gov/horizons/manual.html
    Connect     : browser        https://ssd.jpl.nasa.gov/horizons/app.html#/x
                  API            https://ssd-api.jpl.nasa.gov/doc/horizons.html
                  command-line   telnet ssd.jpl.nasa.gov 6775
                  e-mail/batch   https://ssd.jpl.nasa.gov/ftp/ssd/hrzn_batch.txt
                  scripts        https://ssd.jpl.nasa.gov/ftp/ssd/SCRIPTS
    Author      : Jon.D.Giorgini@jpl.nasa.gov
*******************************************************************************
